[{"OBJECT_NAME":"STARLINK-3119","OBJECT_ID":"2021-082R","EPOCH":"2026-03-09T22:01:50.624256","MEAN_MOTION":14.98331314,"ECCENTRICITY":0.00026353,"INCLINATION":69.9989,"RA_OF_ASC_NODE":253.8624,"ARG_OF_PERICENTER":269.6747,"MEAN_ANOMALY":90.411,"EPHEMERIS_TYPE":0,"CLASSIFICATION_TYPE":"U","NORAD_CAT_ID":49145,"ELEMENT_SET_NO":999,"REV_AT_EPOCH":24699,"BSTAR":4.1518859e-5,"MEAN_MOTION_DOT":4.02e-6,"MEAN_MOTION_DDOT":0},{"OBJECT_NAME":"CZ-6A DEB","OBJECT_ID":"2022-151AD","EPOCH":"2026-03-09T17:57:16.876800","MEAN_MOTION":14.82404648,"ECCENTRICITY":0.00830504,"INCLINATION":98.5956,"RA_OF_ASC_NODE":149.7366,"ARG_OF_PERICENTER":144.8242,"MEAN_ANOMALY":215.8491,"EPHEMERIS_TYPE":0,"CLASSIFICATION_TYPE":"U","NORAD_CAT_ID":54286,"ELEMENT_SET_NO":999,"REV_AT_EPOCH":17665,"BSTAR":0.0024695281,"MEAN_MOTION_DOT":0.00021003,"MEAN_MOTION_DDOT":0}]
